[{"OBJECT_NAME":"BEIJING 1","OBJECT_ID":"2005-043A","EPOCH":"2026-03-07T05:03:50.499360","MEAN_MOTION":14.634574,"ECCENTRICITY":0.0013488,"INCLINATION":98.273,"RA_OF_ASC_NODE":198.9561,"ARG_OF_PERICENTER":238.5036,"MEAN_ANOMALY":121.4848,"EPHEMERIS_TYPE":0,"CLASSIFICATION_TYPE":"U","NORAD_CAT_ID":28890,"ELEMENT_SET_NO":999,"REV_AT_EPOCH":8573,"BSTAR":9.9906e-5,"MEAN_MOTION_DOT":4.69e-6,"MEAN_MOTION_DDOT":0},{"OBJECT_NAME":"HUANJING 1A (HJ-1A)","OBJECT_ID":"2008-041A","EPOCH":"2026-03-07T04:58:39.989856","MEAN_MOTION":14.83712375,"ECCENTRICITY":0.0020596,"INCLINATION":97.6632,"RA_OF_ASC_NODE":56.0425,"ARG_OF_PERICENTER":111.1233,"MEAN_ANOMALY":249.2186,"EPHEMERIS_TYPE":0,"CLASSIFICATION_TYPE":"U","NORAD_CAT_ID":33320,"ELEMENT_SET_NO":999,"REV_AT_EPOCH":94328,"BSTAR":0.00031268,"MEAN_MOTION_DOT":2.543e-5,"MEAN_MOTION_DDOT":0},{"OBJECT_NAME":"HUANJING 1B (HJ-1B)","OBJECT_ID":"2008-041B","EPOCH":"2026-03-07T04:47:31.295328","MEAN_MOTION":14.8309513,"ECCENTRICITY":0.0036935,"INCLINATION":97.6478,"RA_OF_ASC_NODE":59.5049,"ARG_OF_PERICENTER":155.8313,"MEAN_ANOMALY":204.4645,"EPHEMERIS_TYPE":0,"CLASSIFICATION_TYPE":"U","NORAD_CAT_ID":33321,"ELEMENT_SET_NO":999,"REV_AT_EPOCH":94329,"BSTAR":0.00021274,"MEAN_MOTION_DOT":1.701e-5,"MEAN_MOTION_DDOT":0},{"OBJECT_NAME":"YAOGAN-4","OBJECT_ID":"2008-061A","EPOCH":"2026-03-07T03:44:38.863104","MEAN_MOTION":14.82967929,"ECCENTRICITY":0.0015496,"INCLINATION":97.9249,"RA_OF_ASC_NODE":0.4748,"ARG_OF_PERICENTER":47.0176,"MEAN_ANOMALY":313.2333,"EPHEMERIS_TYPE":0,"CLASSIFICATION_TYPE":"U","NORAD_CAT_ID":33446,"ELEMENT_SET_NO":999,"REV_AT_EPOCH":93054,"BSTAR":0.00021766,"MEAN_MOTION_DOT":1.717e-5,"MEAN_MOTION_DDOT":0},{"OBJECT_NAME":"DEIMOS-1","OBJECT_ID":"2009-041A","EPOCH":"2026-03-07T04:05:40.288416","MEAN_MOTION":14.75110861,"ECCENTRICITY":0.0002167,"INCLINATION":97.7254,"RA_OF_ASC_NODE":227.897,"ARG_OF_PERICENTER":122.3452,"MEAN_ANOMALY":237.7968,"EPHEMERIS_TYPE":0,"CLASSIFICATION_TYPE":"U","NORAD_CAT_ID":35681,"ELEMENT_SET_NO":999,"REV_AT_EPOCH":89184,"BSTAR":0.00014462,"MEAN_MOTION_DOT":9.28e-6,"MEAN_MOTION_DDOT":0},{"OBJECT_NAME":"UK-DMC 2","OBJECT_ID":"2009-041C","EPOCH":"2026-03-07T04:41:09.570624","MEAN_MOTION":14.75843245,"ECCENTRICITY":0.0001099,"INCLINATION":97.8652,"RA_OF_ASC_NODE":203.7656,"ARG_OF_PERICENTER":92.0127,"MEAN_ANOMALY":268.1209,"EPHEMERIS_TYPE":0,"CLASSIFICATION_TYPE":"U","NORAD_CAT_ID":35683,"ELEMENT_SET_NO":999,"REV_AT_EPOCH":89152,"BSTAR":0.00013952,"MEAN_MOTION_DOT":9.08e-6,"MEAN_MOTION_DDOT":0},{"OBJECT_NAME":"DMC3-FM1","OBJECT_ID":"2015-032A","EPOCH":"2026-03-07T04:03:13.802400","MEAN_MOTION":14.85606966,"ECCENTRICITY":0.0006588,"INCLINATION":97.6613,"RA_OF_ASC_NODE":295.2593,"ARG_OF_PERICENTER":40.0008,"MEAN_ANOMALY":320.1692,"EPHEMERIS_TYPE":0,"CLASSIFICATION_TYPE":"U","NORAD_CAT_ID":40715,"ELEMENT_SET_NO":999,"REV_AT_EPOCH":57476,"BSTAR":7.2595e-5,"MEAN_MOTION_DOT":5.77e-6,"MEAN_MOTION_DDOT":0},{"OBJECT_NAME":"DMC3-FM2","OBJECT_ID":"2015-032B","EPOCH":"2026-03-07T04:35:24.036288","MEAN_MOTION":14.85612743,"ECCENTRICITY":0.0007211,"INCLINATION":97.6668,"RA_OF_ASC_NODE":296.7845,"ARG_OF_PERICENTER":44.258,"MEAN_ANOMALY":315.9211,"EPHEMERIS_TYPE":0,"CLASSIFICATION_TYPE":"U","NORAD_CAT_ID":40716,"ELEMENT_SET_NO":999,"REV_AT_EPOCH":57476,"BSTAR":0.00014633,"MEAN_MOTION_DOT":1.215e-5,"MEAN_MOTION_DDOT":0},{"OBJECT_NAME":"DMC3-FM3","OBJECT_ID":"2015-032C","EPOCH":"2026-03-07T05:08:37.436352","MEAN_MOTION":14.85613999,"ECCENTRICITY":0.0006524,"INCLINATION":97.6724,"RA_OF_ASC_NODE":298.4938,"ARG_OF_PERICENTER":45.1613,"MEAN_ANOMALY":315.0132,"EPHEMERIS_TYPE":0,"CLASSIFICATION_TYPE":"U","NORAD_CAT_ID":40717,"ELEMENT_SET_NO":999,"REV_AT_EPOCH":57477,"BSTAR":0.00017645,"MEAN_MOTION_DOT":1.476e-5,"MEAN_MOTION_DDOT":0}]
