BEIJING 1               
1 28890U 05043A   26066.21100115  .00000469  00000+0  99906-4 0  9995
2 28890  98.2730 198.9561 0013488 238.5036 121.4848 14.63457400 85733
HUANJING 1A (HJ-1A)     
1 33320U 08041A   26066.20740729  .00002543  00000+0  31268-3 0  9991
2 33320  97.6632  56.0425 0020596 111.1233 249.2186 14.83712375943281
HUANJING 1B (HJ-1B)     
1 33321U 08041B   26066.19966777  .00001701  00000+0  21274-3 0  9994
2 33321  97.6478  59.5049 0036935 155.8313 204.4645 14.83095130943295
YAOGAN-4                
1 33446U 08061A   26066.15600536  .00001717  00000+0  21766-3 0  9991
2 33446  97.9249   0.4748 0015496  47.0176 313.2333 14.82967929930541
DEIMOS-1                
1 35681U 09041A   26066.17060519  .00000928  00000+0  14462-3 0  9994
2 35681  97.7254 227.8970 0002167 122.3452 237.7968 14.75110861891845
UK-DMC 2                
1 35683U 09041C   26066.19524966  .00000908  00000+0  13952-3 0  9990
2 35683  97.8652 203.7656 0001099  92.0127 268.1209 14.75843245891529
DMC3-FM1                
1 40715U 15032A   26066.16890975  .00000577  00000+0  72595-4 0  9993
2 40715  97.6613 295.2593 0006588  40.0008 320.1692 14.85606966574768
DMC3-FM2                
1 40716U 15032B   26066.19125042  .00001215  00000+0  14633-3 0  9991
2 40716  97.6668 296.7845 0007211  44.2580 315.9211 14.85612743574769
DMC3-FM3                
1 40717U 15032C   26066.21432218  .00001476  00000+0  17645-3 0  9996
2 40717  97.6724 298.4938 0006524  45.1613 315.0132 14.85613999574776
